[Satellite]
VERSION=1.1
NAME=TDRS 12
NICKNAME=TDRS 12
TLE1=1 39504U 14004A   15054.09625481 -.00000294  00000-0  00000+0 0  9995
TLE2=2 39504   6.7461 337.6596 0003082  20.2490 148.0197  1.00269058  4012
